[{"OBJECT_NAME":"STARLINK-30462","OBJECT_ID":"2023-146M","EPOCH":"2026-03-09T22:00:01.999584","MEAN_MOTION":15.06201719,"ECCENTRICITY":0.00020644,"INCLINATION":43.0005,"RA_OF_ASC_NODE":311.9584,"ARG_OF_PERICENTER":259.8458,"MEAN_ANOMALY":49.1349,"EPHEMERIS_TYPE":0,"CLASSIFICATION_TYPE":"U","NORAD_CAT_ID":57902,"ELEMENT_SET_NO":999,"REV_AT_EPOCH":577,"BSTAR":0.10381501,"MEAN_MOTION_DOT":0.01694699,"MEAN_MOTION_DDOT":0},{"OBJECT_NAME":"ICEYE-X59","OBJECT_ID":"2025-276CQ","EPOCH":"2026-03-09T10:36:55.321344","MEAN_MOTION":15.13098076,"ECCENTRICITY":0.00031789,"INCLINATION":97.426,"RA_OF_ASC_NODE":143.501,"ARG_OF_PERICENTER":13.4208,"MEAN_ANOMALY":346.7107,"EPHEMERIS_TYPE":0,"CLASSIFICATION_TYPE":"U","NORAD_CAT_ID":66752,"ELEMENT_SET_NO":999,"REV_AT_EPOCH":1526,"BSTAR":0.00038489192,"MEAN_MOTION_DOT":6.752e-5,"MEAN_MOTION_DDOT":0}]
